[
    {
        "CCSDS_OMM_VERS": "3.0",
        "COMMENT": "GENERATED VIA SPACE-TRACK.ORG API",
        "CREATION_DATE": "2025-04-14T03:05:54",
        "ORIGINATOR": "18 SPCS",
        "OBJECT_NAME": "NAVSTAR 75 (USA 265)",
        "OBJECT_ID": "2015-062A",
        "CENTER_NAME": "EARTH",
        "REF_FRAME": "TEME",
        "TIME_SYSTEM": "UTC",
        "MEAN_ELEMENT_THEORY": "SGP4",
        "EPOCH": "2025-04-13T12:07:30.696960",
        "MEAN_MOTION": "2.00566773",
        "ECCENTRICITY": "0.01028720",
        "INCLINATION": "56.6507",
        "RA_OF_ASC_NODE": "47.4132",
        "ARG_OF_PERICENTER": "228.6693",
        "MEAN_ANOMALY": "130.4226",
        "EPHEMERIS_TYPE": "0",
        "CLASSIFICATION_TYPE": "U",
        "NORAD_CAT_ID": "41019",
        "ELEMENT_SET_NO": "999",
        "REV_AT_EPOCH": "6921",
        "BSTAR": "0.00000000000000",
        "MEAN_MOTION_DOT": "-0.00000072",
        "MEAN_MOTION_DDOT": "0.0000000000000",
        "SEMIMAJOR_AXIS": "26560.068",
        "PERIOD": "717.965",
        "APOAPSIS": "20455.162",
        "PERIAPSIS": "19908.704",
        "OBJECT_TYPE": "PAYLOAD",
        "RCS_SIZE": "LARGE",
        "COUNTRY_CODE": "US",
        "LAUNCH_DATE": "2015-10-31",
        "SITE": "AFETR",
        "DECAY_DATE": null,
        "FILE": "4701263",
        "GP_ID": "285537690",
        "TLE_LINE0": "0 NAVSTAR 75 (USA 265)",
        "TLE_LINE1": "1 41019U 15062A   25103.50521640 -.00000072  00000-0  00000-0 0  9993",
        "TLE_LINE2": "2 41019  56.6507  47.4132 0102872 228.6693 130.4226  2.00566773 69215"
    }
]